CCSDS_OMM_VERS = 2.0
CREATION_DATE  = 
ORIGINATOR     = 

OBJECT_NAME    = ISS (ZARYA)
OBJECT_ID      = 1998-067A
CENTER_NAME    = EARTH
REF_FRAME      = TEME
TIME_SYSTEM    = UTC
MEAN_ELEMENT_THEORY = SGP/SGP4

EPOCH          = 2026-02-03T13:34:55.828416
MEAN_MOTION    = 15.48366668
ECCENTRICITY   = .00110683
INCLINATION    = 51.6309
RA_OF_ASC_NODE = 241.0439
ARG_OF_PERICENTER = 60.8200
MEAN_ANOMALY   = 299.3894

EPHEMERIS_TYPE = 0
CLASSIFICATION_TYPE = U
NORAD_CAT_ID   = 25544
ELEMENT_SET_NO = 999
REV_AT_EPOCH   = 55104
BSTAR          = .19757322E-3
MEAN_MOTION_DOT = .1023E-3
MEAN_MOTION_DDOT = 0

CCSDS_OMM_VERS = 2.0
CREATION_DATE  = 
ORIGINATOR     = 

OBJECT_NAME    = CSS (TIANHE)
OBJECT_ID      = 2021-035A
CENTER_NAME    = EARTH
REF_FRAME      = TEME
TIME_SYSTEM    = UTC
MEAN_ELEMENT_THEORY = SGP/SGP4

EPOCH          = 2026-02-03T12:38:58.339968
MEAN_MOTION    = 15.59144861
ECCENTRICITY   = .00061645
INCLINATION    = 41.4674
RA_OF_ASC_NODE = 55.7893
ARG_OF_PERICENTER = 350.4992
MEAN_ANOMALY   = 9.5728

EPHEMERIS_TYPE = 0
CLASSIFICATION_TYPE = U
NORAD_CAT_ID   = 48274
ELEMENT_SET_NO = 999
REV_AT_EPOCH   = 27227
BSTAR          = .22908029E-3
MEAN_MOTION_DOT = .18163E-3
MEAN_MOTION_DDOT = 0

CCSDS_OMM_VERS = 2.0
CREATION_DATE  = 
ORIGINATOR     = 

OBJECT_NAME    = ISS (NAUKA)
OBJECT_ID      = 2021-066A
CENTER_NAME    = EARTH
REF_FRAME      = TEME
TIME_SYSTEM    = UTC
MEAN_ELEMENT_THEORY = SGP/SGP4

EPOCH          = 2026-02-03T13:34:55.828416
MEAN_MOTION    = 15.48366668
ECCENTRICITY   = .00110683
INCLINATION    = 51.6309
RA_OF_ASC_NODE = 241.0439
ARG_OF_PERICENTER = 60.8200
MEAN_ANOMALY   = 299.3894

EPHEMERIS_TYPE = 0
CLASSIFICATION_TYPE = U
NORAD_CAT_ID   = 49044
ELEMENT_SET_NO = 999
REV_AT_EPOCH   = 23044
BSTAR          = .19757322E-3
MEAN_MOTION_DOT = .1023E-3
MEAN_MOTION_DDOT = 0

CCSDS_OMM_VERS = 2.0
CREATION_DATE  = 
ORIGINATOR     = 

OBJECT_NAME    = FREGAT DEB
OBJECT_ID      = 2011-037PF
CENTER_NAME    = EARTH
REF_FRAME      = TEME
TIME_SYSTEM    = UTC
MEAN_ELEMENT_THEORY = SGP/SGP4

EPOCH          = 2026-02-03T07:35:10.581216
MEAN_MOTION    = 12.37687578
ECCENTRICITY   = .0923736
INCLINATION    = 51.6504
RA_OF_ASC_NODE = 43.5774
ARG_OF_PERICENTER = 340.5622
MEAN_ANOMALY   = 16.2069

EPHEMERIS_TYPE = 0
CLASSIFICATION_TYPE = U
NORAD_CAT_ID   = 49271
ELEMENT_SET_NO = 999
REV_AT_EPOCH   = 20843
BSTAR          = .86170512E-1
MEAN_MOTION_DOT = .50279E-3
MEAN_MOTION_DDOT = 0

CCSDS_OMM_VERS = 2.0
CREATION_DATE  = 
ORIGINATOR     = 

OBJECT_NAME    = CSS (WENTIAN)
OBJECT_ID      = 2022-085A
CENTER_NAME    = EARTH
REF_FRAME      = TEME
TIME_SYSTEM    = UTC
MEAN_ELEMENT_THEORY = SGP/SGP4

EPOCH          = 2026-02-03T12:38:58.339968
MEAN_MOTION    = 15.59144861
ECCENTRICITY   = .00061645
INCLINATION    = 41.4674
RA_OF_ASC_NODE = 55.7893
ARG_OF_PERICENTER = 350.4992
MEAN_ANOMALY   = 9.5728

EPHEMERIS_TYPE = 0
CLASSIFICATION_TYPE = U
NORAD_CAT_ID   = 53239
ELEMENT_SET_NO = 999
REV_AT_EPOCH   = 17384
BSTAR          = .22908029E-3
MEAN_MOTION_DOT = .18163E-3
MEAN_MOTION_DDOT = 0

CCSDS_OMM_VERS = 2.0
CREATION_DATE  = 
ORIGINATOR     = 

OBJECT_NAME    = CSS (MENGTIAN)
OBJECT_ID      = 2022-143A
CENTER_NAME    = EARTH
REF_FRAME      = TEME
TIME_SYSTEM    = UTC
MEAN_ELEMENT_THEORY = SGP/SGP4

EPOCH          = 2026-02-03T12:38:58.339968
MEAN_MOTION    = 15.59144861
ECCENTRICITY   = .00061645
INCLINATION    = 41.4674
RA_OF_ASC_NODE = 55.7893
ARG_OF_PERICENTER = 350.4992
MEAN_ANOMALY   = 9.5728

EPHEMERIS_TYPE = 0
CLASSIFICATION_TYPE = U
NORAD_CAT_ID   = 54216
ELEMENT_SET_NO = 999
REV_AT_EPOCH   = 15864
BSTAR          = .22908029E-3
MEAN_MOTION_DOT = .18163E-3
MEAN_MOTION_DDOT = 0

CCSDS_OMM_VERS = 2.0
CREATION_DATE  = 
ORIGINATOR     = 

OBJECT_NAME    = PROGRESS-MS 31
OBJECT_ID      = 2025-146A
CENTER_NAME    = EARTH
REF_FRAME      = TEME
TIME_SYSTEM    = UTC
MEAN_ELEMENT_THEORY = SGP/SGP4

EPOCH          = 2026-02-03T13:34:55.828416
MEAN_MOTION    = 15.48366668
ECCENTRICITY   = .00110683
INCLINATION    = 51.6309
RA_OF_ASC_NODE = 241.0439
ARG_OF_PERICENTER = 60.8200
MEAN_ANOMALY   = 299.3894

EPHEMERIS_TYPE = 0
CLASSIFICATION_TYPE = U
NORAD_CAT_ID   = 64751
ELEMENT_SET_NO = 999
REV_AT_EPOCH   = 675
BSTAR          = .19757322E-3
MEAN_MOTION_DOT = .1023E-3
MEAN_MOTION_DDOT = 0

CCSDS_OMM_VERS = 2.0
CREATION_DATE  = 
ORIGINATOR     = 

OBJECT_NAME    = TIANZHOU-9
OBJECT_ID      = 2025-149A
CENTER_NAME    = EARTH
REF_FRAME      = TEME
TIME_SYSTEM    = UTC
MEAN_ELEMENT_THEORY = SGP/SGP4

EPOCH          = 2026-02-03T12:38:58.339968
MEAN_MOTION    = 15.59144861
ECCENTRICITY   = .00061645
INCLINATION    = 41.4674
RA_OF_ASC_NODE = 55.7893
ARG_OF_PERICENTER = 350.4992
MEAN_ANOMALY   = 9.5728

EPHEMERIS_TYPE = 0
CLASSIFICATION_TYPE = U
NORAD_CAT_ID   = 64786
ELEMENT_SET_NO = 999
REV_AT_EPOCH   = 25530
BSTAR          = .22908029E-3
MEAN_MOTION_DOT = .18163E-3
MEAN_MOTION_DDOT = 0

CCSDS_OMM_VERS = 2.0
CREATION_DATE  = 
ORIGINATOR     = 

OBJECT_NAME    = DRAGON CRS-33
OBJECT_ID      = 2025-186A
CENTER_NAME    = EARTH
REF_FRAME      = TEME
TIME_SYSTEM    = UTC
MEAN_ELEMENT_THEORY = SGP/SGP4

EPOCH          = 2026-02-03T13:34:55.828416
MEAN_MOTION    = 15.48366668
ECCENTRICITY   = .00110683
INCLINATION    = 51.6309
RA_OF_ASC_NODE = 241.0439
ARG_OF_PERICENTER = 60.8200
MEAN_ANOMALY   = 299.3894

EPHEMERIS_TYPE = 0
CLASSIFICATION_TYPE = U
NORAD_CAT_ID   = 65304
ELEMENT_SET_NO = 999
REV_AT_EPOCH   = 11
BSTAR          = .19757322E-3
MEAN_MOTION_DOT = .1023E-3
MEAN_MOTION_DDOT = 0

CCSDS_OMM_VERS = 2.0
CREATION_DATE  = 
ORIGINATOR     = 

OBJECT_NAME    = PROGRESS-MS 32
OBJECT_ID      = 2025-204A
CENTER_NAME    = EARTH
REF_FRAME      = TEME
TIME_SYSTEM    = UTC
MEAN_ELEMENT_THEORY = SGP/SGP4

EPOCH          = 2026-02-03T13:34:55.828416
MEAN_MOTION    = 15.48366668
ECCENTRICITY   = .00110683
INCLINATION    = 51.6309
RA_OF_ASC_NODE = 241.0439
ARG_OF_PERICENTER = 60.8200
MEAN_ANOMALY   = 299.3894

EPHEMERIS_TYPE = 0
CLASSIFICATION_TYPE = U
NORAD_CAT_ID   = 65586
ELEMENT_SET_NO = 999
REV_AT_EPOCH   = 27
BSTAR          = .19757322E-3
MEAN_MOTION_DOT = .1023E-3
MEAN_MOTION_DDOT = 0

CCSDS_OMM_VERS = 2.0
CREATION_DATE  = 
ORIGINATOR     = 

OBJECT_NAME    = CYGNUS NG-23
OBJECT_ID      = 2025-208A
CENTER_NAME    = EARTH
REF_FRAME      = TEME
TIME_SYSTEM    = UTC
MEAN_ELEMENT_THEORY = SGP/SGP4

EPOCH          = 2026-02-03T13:34:55.828416
MEAN_MOTION    = 15.48366668
ECCENTRICITY   = .00110683
INCLINATION    = 51.6309
RA_OF_ASC_NODE = 241.0439
ARG_OF_PERICENTER = 60.8200
MEAN_ANOMALY   = 299.3894

EPHEMERIS_TYPE = 0
CLASSIFICATION_TYPE = U
NORAD_CAT_ID   = 65616
ELEMENT_SET_NO = 999
REV_AT_EPOCH   = 22
BSTAR          = .19757322E-3
MEAN_MOTION_DOT = .1023E-3
MEAN_MOTION_DDOT = 0

CCSDS_OMM_VERS = 2.0
CREATION_DATE  = 
ORIGINATOR     = 

OBJECT_NAME    = 1998-067XK
OBJECT_ID      = 1998-067XK
CENTER_NAME    = EARTH
REF_FRAME      = TEME
TIME_SYSTEM    = UTC
MEAN_ELEMENT_THEORY = SGP/SGP4

EPOCH          = 2026-02-03T13:05:50.138880
MEAN_MOTION    = 15.81759535
ECCENTRICITY   = .0003531
INCLINATION    = 51.6219
RA_OF_ASC_NODE = 226.6188
ARG_OF_PERICENTER = 217.8475
MEAN_ANOMALY   = 142.2280

EPHEMERIS_TYPE = 0
CLASSIFICATION_TYPE = U
NORAD_CAT_ID   = 65731
ELEMENT_SET_NO = 999
REV_AT_EPOCH   = 2145
BSTAR          = .11629525E-2
MEAN_MOTION_DOT = .245851E-2
MEAN_MOTION_DDOT = 0

