ISS (ZARYA)             
1 25544U 98067A   26034.56592394  .00010230  00000+0  19757-3 0  9995
2 25544  51.6309 241.0439 0011068  60.8200 299.3894 15.48366668551043
CSS (TIANHE)            
1 48274U 21035A   26034.52706412  .00018163  00000+0  22908-3 0  9990
2 48274  41.4674  55.7893 0006164 350.4992   9.5728 15.59144861272274
ISS (NAUKA)             
1 49044U 21066A   26034.56592394  .00010230  00000+0  19757-3 0  9991
2 49044  51.6309 241.0439 0011068  60.8200 299.3894 15.48366668230442
FREGAT DEB              
1 49271U 11037PF  26034.31609469  .00050279  00000+0  86171-1 0  9994
2 49271  51.6504  43.5774 0923736 340.5622  16.2069 12.37687578208433
CSS (WENTIAN)           
1 53239U 22085A   26034.52706412  .00018163  00000+0  22908-3 0  9993
2 53239  41.4674  55.7893 0006164 350.4992   9.5728 15.59144861173844
CSS (MENGTIAN)          
1 54216U 22143A   26034.52706412  .00018163  00000+0  22908-3 0  9994
2 54216  41.4674  55.7893 0006164 350.4992   9.5728 15.59144861158641
PROGRESS-MS 31          
1 64751U 25146A   26034.56592394  .00010230  00000+0  19757-3 0  9996
2 64751  51.6309 241.0439 0011068  60.8200 299.3894 15.48366668  6759
TIANZHOU-9              
1 64786U 25149A   26034.52706412  .00018163  00000+0  22908-3 0  9996
2 64786  41.4674  55.7893 0006164 350.4992   9.5728 15.59144861255305
DRAGON CRS-33           
1 65304U 25186A   26034.56592394  .00010230  00000+0  19757-3 0  9995
2 65304  51.6309 241.0439 0011068  60.8200 299.3894 15.48366668   118
PROGRESS-MS 32          
1 65586U 25204A   26034.56592394  .00010230  00000+0  19757-3 0  9998
2 65586  51.6309 241.0439 0011068  60.8200 299.3894 15.48366668   277
CYGNUS NG-23            
1 65616U 25208A   26034.56592394  .00010230  00000+0  19757-3 0  9996
2 65616  51.6309 241.0439 0011068  60.8200 299.3894 15.48366668   226
1998-067XK              
1 65731U 98067XK  26034.54571920  .00245851  00000+0  11630-2 0  9997
2 65731  51.6219 226.6188 0003531 217.8475 142.2280 15.81759535 21457
